0 COSMOS 1275 DEB
1 12729U 81053BW  13283.37930619  .00000389  00000-0  49944-3 0  6027
2 12729 083.0470 146.2682 0130101 124.7248 356.5752 13.56714758451020
0 COSMOS 1275 DEB
1 12729U 81053BW  13285.81210309  .00000429  00000-0  55316-3 0  6031
2 12729 083.0466 144.5471 0130274 118.1603 358.7516 13.56716851451359
0 COSMOS 1275 DEB
1 12729U 81053BW  13288.09860484  .00000558  00000-0  72566-3 0  6049
2 12729 083.0460 142.9293 0130348 112.0245 006.3829 13.56719896451663
0 COSMOS 1275 DEB
1 12729U 81053BW  13290.58858184  .00000503  00000-0  65127-3 0  6056
2 12729 083.0457 141.1675 0130416 105.3501 287.8383 13.56722638452008
0 COSMOS 1275 DEB
1 12729U 81053BW  13293.04675700  .00000479  00000-0  61920-3 0  6061
2 12729 083.0457 139.4281 0130430 098.7576 053.9920 13.56724254452335
0 COSMOS 1275 DEB
1 12729U 81053BW  13295.52921044  .00000468  00000-0  60525-3 0  6070
2 12729 083.0455 137.6714 0130437 092.0932 298.7503 13.56726477452676
